
# Worst residual: 5.75 km
# MJD 59273.000000 (2021 Feb 28  0:00)
1969-046D = NORAD 03954 = Vela 5a
1 03954U 69046D   21059.49919926  .00000000  00000-0  00000-0 0 10882
2 03954 034.0186 129.8919 8778889 108.4246 308.9103 00.21520686    08

# Worst residual: 43.83 km
# MJD 59274.000000 (2021 Mar  1  0:00)
1969-046D = NORAD 03954 = Vela 5a
1 03954U 69046D   21060.49919926  .00000000  00000-0  00000-0 0 10884
2 03954 034.0620 129.6578 8777216 108.6121 026.5456 00.21600997    05

# Worst residual: 12.09 km
# MJD 59275.000000 (2021 Mar  2  0:00)
1969-046D = NORAD 03954 = Vela 5a
1 03954U 69046D   21061.49919926  .00000000  00000-0  00000-0 0 10885
2 03954 034.1014 129.3438 8785670 108.8647 103.8374 00.21515599    04

# Worst residual: 7.33 km
# MJD 59276.000000 (2021 Mar  3  0:00)
1969-046D = NORAD 03954 = Vela 5a
1 03954U 69046D   21062.49919926  .00000000  00000-0  00000-0 0 10886
2 03954 034.1249 129.2756 8783344 108.9482 181.0987 00.21495886    04

# Worst residual: 7.37 km
# MJD 59277.000000 (2021 Mar  4  0:00)
1969-046D = NORAD 03954 = Vela 5a
1 03954U 69046D   21063.49919926  .00000000  00000-0  00000-0 0 10887
2 03954 034.1141 129.2825 8783584 108.9435 258.4430 00.21500487    02

# Worst residual: 20.49 km
# MJD 59278.000000 (2021 Mar  5  0:00)
1969-046D = NORAD 03954 = Vela 5a
1 03954U 69046D   21064.49919926  .00000000  00000-0  00000-0 0 10888
2 03954 034.1651 129.0762 8782727 109.1291 335.8163 00.21548719    00

# Worst residual: 10.78 km
# MJD 59279.000000 (2021 Mar  6  0:00)
1969-046D = NORAD 03954 = Vela 5a
1 03954U 69046D   21065.49919926  .00000000  00000-0  00000-0 0 10889
2 03954 034.2094 128.7723 8784793 109.3590 053.4066 00.21534758    07

# Worst residual: 4.80 km
# MJD 59280.000000 (2021 Mar  7  0:00)
1969-046D = NORAD 03954 = Vela 5a
1 03954U 69046D   21066.49919926  .00000000  00000-0  00000-0 0 10880
2 03954 034.2498 128.6082 8785518 109.5138 130.7872 00.21507436    05

# Worst residual: 4.78 km
# MJD 59281.000000 (2021 Mar  8  0:00)
1969-046D = NORAD 03954 = Vela 5a
1 03954U 69046D   21067.49919926  .00000000  00000-0  00000-0 0 10881
2 03954 034.2858 128.4488 8786104 109.6475 208.1528 00.21504907    08

# Worst residual: 16.24 km
# MJD 59282.000000 (2021 Mar  9  0:00)
1969-046D = NORAD 03954 = Vela 5a
1 03954U 69046D   21068.49919926  .00000000  00000-0  00000-0 0 10882
2 03954 034.3369 128.2204 8784707 109.8454 285.4605 00.21522836    01

# Worst residual: 43.36 km
# MJD 59283.000000 (2021 Mar 10  0:00)
1969-046D = NORAD 03954 = Vela 5a
1 03954U 69046D   21069.49919926  .00000000  00000-0  00000-0 0 10883
2 03954 034.3938 128.0003 8775043 109.9884 002.9530 00.21645094    00

# Worst residual: 10.29 km
# MJD 59284.000000 (2021 Mar 11  0:00)
1969-046D = NORAD 03954 = Vela 5a
1 03954U 69046D   21070.49919926  .00000000  00000-0  00000-0 0 10885
2 03954 034.4401 127.7469 8786895 110.1230 080.4660 00.21546257    00

# Worst residual: 7.32 km
# MJD 59285.000000 (2021 Mar 12  0:00)
1969-046D = NORAD 03954 = Vela 5a
1 03954U 69046D   21071.49919926  .00000000  00000-0  00000-0 0 10886
2 03954 034.4840 127.5627 8784600 110.2905 157.9515 00.21527016    04

# Worst residual: 10.93 km
# MJD 59286.000000 (2021 Mar 13  0:00)
1969-046D = NORAD 03954 = Vela 5a
1 03954U 69046D   21072.49919926  .00000000  00000-0  00000-0 0 10887
2 03954 034.4992 127.4860 8778225 110.3140 235.6226 00.21510915    01

# Worst residual: 8.74 km
# MJD 59287.000000 (2021 Mar 14  0:00)
1969-046D = NORAD 03954 = Vela 5a
1 03954U 69046D   21073.49919926  .00000000  00000-0  00000-0 0 10888
2 03954 034.4975 127.4038 8776195 110.3141 313.2404 00.21473627    03

# Worst residual: 26.72 km
# MJD 59288.000000 (2021 Mar 15  0:00)
1969-046D = NORAD 03954 = Vela 5a
1 03954U 69046D   21074.49919926  .00000000  00000-0  00000-0 0 10889
2 03954 034.5423 127.1481 8776887 110.5412 030.7088 00.21532196    08

# Worst residual: 3.24 km
# MJD 59289.000000 (2021 Mar 16  0:00)
1969-046D = NORAD 03954 = Vela 5a
1 03954U 69046D   21075.49919926  .00000000  00000-0  00000-0 0 10880
2 03954 034.5906 126.7194 8782123 110.8604 108.0975 00.21506235    05

# Worst residual: 5.61 km
# MJD 59290.000000 (2021 Mar 17  0:00)
1969-046D = NORAD 03954 = Vela 5a
1 03954U 69046D   21076.49919926  .00000000  00000-0  00000-0 0 10881
2 03954 034.6429 126.4776 8782031 111.0347 185.6702 00.21507665    01

# Worst residual: 6.40 km
# MJD 59291.000000 (2021 Mar 18  0:00)
1969-046D = NORAD 03954 = Vela 5a
1 03954U 69046D   21077.49919926  .00000000  00000-0  00000-0 0 10882
2 03954 034.6743 126.3297 8783508 111.1201 263.3127 00.21499688    07

# Worst residual: 10.84 km
# MJD 59292.000000 (2021 Mar 19  0:00)
1969-046D = NORAD 03954 = Vela 5a
1 03954U 69046D   21078.49919926  .00000000  00000-0  00000-0 0 10883
2 03954 034.7611 126.0676 8785540 111.3301 340.7970 00.21500926    05

# Worst residual: 1.68 km
# MJD 59293.000000 (2021 Mar 20  0:00)
1969-046D = NORAD 03954 = Vela 5a
1 03954U 69046D   21079.49919926  .00000000  00000-0  00000-0 0 10884
2 03954 034.8022 125.7798 8786116 111.5543 058.2782 00.21506808    00

# Worst residual: 7.09 km
# MJD 59294.000000 (2021 Mar 21  0:00)
1969-046D = NORAD 03954 = Vela 5a
1 03954U 69046D   21080.49919926  .00000000  00000-0  00000-0 0 10886
2 03954 034.8364 125.7205 8787716 111.5721 135.8423 00.21515982    04

# Worst residual: 5.52 km
# MJD 59295.000000 (2021 Mar 22  0:00)
1969-046D = NORAD 03954 = Vela 5a
1 03954U 69046D   21081.49919926  .00000000  00000-0  00000-0 0 10887
2 03954 034.8431 125.7182 8791686 111.5428 213.4820 00.21523048    04

# Worst residual: 10.79 km
# MJD 59296.000000 (2021 Mar 23  0:00)
1969-046D = NORAD 03954 = Vela 5a
1 03954U 69046D   21082.49919926  .00000000  00000-0  00000-0 0 10888
2 03954 034.8712 125.5779 8793740 111.6542 291.0112 00.21531542    01

# Worst residual: 35.22 km
# MJD 59297.000000 (2021 Mar 24  0:00)
1969-046D = NORAD 03954 = Vela 5a
1 03954U 69046D   21083.49919926  .00000000  00000-0  00000-0 0 10889
2 03954 034.9417 125.3550 8786254 111.7820 008.5762 00.21620696    02

# Worst residual: 11.88 km
# MJD 59298.000000 (2021 Mar 25  0:00)
1969-046D = NORAD 03954 = Vela 5a
1 03954U 69046D   21084.49919926  .00000000  00000-0  00000-0 0 10880
2 03954 034.9919 125.1043 8796986 111.9395 085.9709 00.21521658    04

# Worst residual: 3.71 km
# MJD 59299.000000 (2021 Mar 26  0:00)
1969-046D = NORAD 03954 = Vela 5a
1 03954U 69046D   21085.49919926  .00000000  00000-0  00000-0 0 10881
2 03954 035.0417 124.9152 8799833 112.1051 163.2521 00.21504443    08

# Worst residual: 1.92 km
# MJD 59300.000000 (2021 Mar 27  0:00)
1969-046D = NORAD 03954 = Vela 5a
1 03954U 69046D   21086.49919926  .00000000  00000-0  00000-0 0 10882
2 03954 035.0802 124.7593 8800270 112.2242 240.6822 00.21504560    08

# Worst residual: 12.43 km
# MJD 59301.000000 (2021 Mar 28  0:00)
1969-046D = NORAD 03954 = Vela 5a
1 03954U 69046D   21087.49919926  .00000000  00000-0  00000-0 0 10883
2 03954 035.1131 124.6023 8802392 112.3421 318.2013 00.21497972    00
